start=new Date('2022-11-03T00:00:00.000Z').valueOf();
sats=[{"DECAY_DATE":null,"PERIOD":"95.440","MEAN_MOTION":"15.08795735","GP_ID":"216793349","SITE":"AFETR","BSTAR":"0.00415480000000","ECCENTRICITY":"0.00013600","TLE_LINE1":"1 53158U 22083AC  22306.75002315  .00066378  00000-0  41548-2 0  9997","FILE":"3643025","MEAN_MOTION_DOT":"0.00066378","RA_OF_ASC_NODE":"254.1017","REV_AT_EPOCH":"130","ELEMENT_SET_NO":"999","NORAD_CAT_ID":"53158","OBJECT_NAME":"STARLINK-4054","PERIAPSIS":"538.940","RCS_SIZE":"LARGE","EPHEMERIS_TYPE":"0","MEAN_ELEMENT_THEORY":"SGP4","REF_FRAME":"TEME","CENTER_NAME":"EARTH","CLASSIFICATION_TYPE":"U","INCLINATION":"53.2152","MEAN_MOTION_DDOT":"0.0000000000000","TLE_LINE2":"2 53158  53.2152 254.1017 0001360  68.4670   4.3087 15.08795735  1309","ARG_OF_PERICENTER":"68.4670","TIME_SYSTEM":"UTC","LAUNCH_DATE":"2022-07-17","APOAPSIS":"540.822","COUNTRY_CODE":"US","SEMIMAJOR_AXIS":"6918.016","OBJECT_TYPE":"PAYLOAD","MEAN_ANOMALY":"4.3087","OBJECT_ID":"2022-083AC","EPOCH":"2022-11-02T18:00:02.000160"},{"GP_ID":"216792599","TLE_LINE1":"1 53159U 22083AD  22306.75002315  .00057850  00000-0  36268-2 0  9996","BSTAR":"0.00362680000000","ECCENTRICITY":"0.00024260","SITE":"AFETR","DECAY_DATE":null,"MEAN_MOTION":"15.08803666","PERIOD":"95.440","MEAN_MOTION_DOT":"0.00057850","RA_OF_ASC_NODE":"254.0964","ELEMENT_SET_NO":"999","REV_AT_EPOCH":"130","FILE":"3643025","CENTER_NAME":"EARTH","REF_FRAME":"TEME","MEAN_MOTION_DDOT":"0.0000000000000","INCLINATION":"53.2163","CLASSIFICATION_TYPE":"U","OBJECT_NAME":"STARLINK-4111","NORAD_CAT_ID":"53159","MEAN_ELEMENT_THEORY":"SGP4","EPHEMERIS_TYPE":"0","RCS_SIZE":"LARGE","PERIAPSIS":"538.178","OBJECT_TYPE":"PAYLOAD","SEMIMAJOR_AXIS":"6917.991","EPOCH":"2022-11-02T18:00:02.000160","OBJECT_ID":"2022-083AD","MEAN_ANOMALY":"148.8509","TIME_SYSTEM":"UTC","LAUNCH_DATE":"2022-07-17","TLE_LINE2":"2 53159  53.2163 254.0964 0002426  23.9227 148.8509 15.08803666  1306","ARG_OF_PERICENTER":"23.9227","COUNTRY_CODE":"US","APOAPSIS":"541.535"},{"DECAY_DATE":null,"PERIOD":"95.440","MEAN_MOTION":"15.08795807","GP_ID":"216792931","ECCENTRICITY":"0.00014040","BSTAR":"0.00383120000000","TLE_LINE1":"1 53160U 22083AE  22306.75002315  .00061141  00000-0  38312-2 0  9998","SITE":"AFETR","FILE":"3643025","RA_OF_ASC_NODE":"254.1013","MEAN_MOTION_DOT":"0.00061141","ELEMENT_SET_NO":"999","REV_AT_EPOCH":"130","OBJECT_NAME":"STARLINK-4096","NORAD_CAT_ID":"53160","EPHEMERIS_TYPE":"0","MEAN_ELEMENT_THEORY":"SGP4","RCS_SIZE":"LARGE","PERIAPSIS":"538.909","REF_FRAME":"TEME","CENTER_NAME":"EARTH","CLASSIFICATION_TYPE":"U","MEAN_MOTION_DDOT":"0.0000000000000","INCLINATION":"53.2148","LAUNCH_DATE":"2022-07-17","TIME_SYSTEM":"UTC","TLE_LINE2":"2 53160  53.2148 254.1013 0001404  60.6560  52.1191 15.08795807  1301","ARG_OF_PERICENTER":"60.6560","APOAPSIS":"540.852","COUNTRY_CODE":"US","OBJECT_TYPE":"PAYLOAD","SEMIMAJOR_AXIS":"6918.015","EPOCH":"2022-11-02T18:00:02.000160","MEAN_ANOMALY":"52.1191","OBJECT_ID":"2022-083AE"},{"PERIOD":"95.440","MEAN_MOTION":"15.08804894","DECAY_DATE":null,"SITE":"AFETR","ECCENTRICITY":"0.00014070","BSTAR":"0.00386400000000","TLE_LINE1":"1 53161U 22083AF  22306.75002315  .00061687  00000-0  38640-2 0  9998","GP_ID":"216792348","FILE":"3643025","REV_AT_EPOCH":"130","ELEMENT_SET_NO":"999","RA_OF_ASC_NODE":"254.1026","MEAN_MOTION_DOT":"0.00061687","RCS_SIZE":"LARGE","PERIAPSIS":"538.879","EPHEMERIS_TYPE":"0","MEAN_ELEMENT_THEORY":"SGP4","NORAD_CAT_ID":"53161","OBJECT_NAME":"STARLINK-4055","CLASSIFICATION_TYPE":"U","MEAN_MOTION_DDOT":"0.0000000000000","INCLINATION":"53.2179","REF_FRAME":"TEME","CENTER_NAME":"EARTH","APOAPSIS":"540.826","COUNTRY_CODE":"US","TLE_LINE2":"2 53161  53.2179 254.1026 0001407  47.8082 184.9826 15.08804894  1305","ARG_OF_PERICENTER":"47.8082","LAUNCH_DATE":"2022-07-17","TIME_SYSTEM":"UTC","MEAN_ANOMALY":"184.9826","OBJECT_ID":"2022-083AF","EPOCH":"2022-11-02T18:00:02.000160","SEMIMAJOR_AXIS":"6917.988","OBJECT_TYPE":"PAYLOAD"},{"OBJECT_ID":"2022-083AG","MEAN_ANOMALY":"297.5779","EPOCH":"2022-11-02T20:30:21.522528","SEMIMAJOR_AXIS":"6917.866","OBJECT_TYPE":"PAYLOAD","COUNTRY_CODE":"US","APOAPSIS":"540.624","ARG_OF_PERICENTER":"62.5344","TLE_LINE2":"2 53162  53.2177 253.6232 0001291  62.5344 297.5779 15.08844756 16757","LAUNCH_DATE":"2022-07-17","TIME_SYSTEM":"UTC","MEAN_MOTION_DDOT":"0.0000000000000","INCLINATION":"53.2177","CLASSIFICATION_TYPE":"U","CENTER_NAME":"EARTH","REF_FRAME":"TEME","PERIAPSIS":"538.838","RCS_SIZE":"LARGE","MEAN_ELEMENT_THEORY":"SGP4","EPHEMERIS_TYPE":"0","NORAD_CAT_ID":"53162","OBJECT_NAME":"STARLINK-4114","REV_AT_EPOCH":"1675","ELEMENT_SET_NO":"999","RA_OF_ASC_NODE":"253.6232","MEAN_MOTION_DOT":"0.00002479","FILE":"3643025","SITE":"AFETR","TLE_LINE1":"1 53162U 22083AG  22306.85441577  .00002479  00000-0  17375-3 0  9994","BSTAR":"0.00017375000000","ECCENTRICITY":"0.00012910","GP_ID":"216793099","MEAN_MOTION":"15.08844756","PERIOD":"95.437","DECAY_DATE":null},{"TLE_LINE2":"2 53163  53.2177 254.1030 0001898  37.3207 230.2822 15.08775940  1307","ARG_OF_PERICENTER":"37.3207","TIME_SYSTEM":"UTC","LAUNCH_DATE":"2022-07-17","APOAPSIS":"541.254","COUNTRY_CODE":"US","SEMIMAJOR_AXIS":"6918.076","OBJECT_TYPE":"PAYLOAD","MEAN_ANOMALY":"230.2822","OBJECT_ID":"2022-083AH","EPOCH":"2022-11-02T18:00:02.000160","NORAD_CAT_ID":"53163","OBJECT_NAME":"STARLINK-4104","PERIAPSIS":"538.628","RCS_SIZE":"LARGE","EPHEMERIS_TYPE":"0","MEAN_ELEMENT_THEORY":"SGP4","REF_FRAME":"TEME","CENTER_NAME":"EARTH","CLASSIFICATION_TYPE":"U","INCLINATION":"53.2177","MEAN_MOTION_DDOT":"0.0000000000000","FILE":"3643025","RA_OF_ASC_NODE":"254.1030","MEAN_MOTION_DOT":"0.00083351","REV_AT_EPOCH":"130","ELEMENT_SET_NO":"999","DECAY_DATE":null,"PERIOD":"95.442","MEAN_MOTION":"15.08775940","GP_ID":"216792182","SITE":"AFETR","ECCENTRICITY":"0.00018980","BSTAR":"0.00520290000000","TLE_LINE1":"1 53163U 22083AH  22306.75002315  .00083351  00000-0  52029-2 0  9999"},{"CENTER_NAME":"EARTH","REF_FRAME":"TEME","INCLINATION":"53.2168","MEAN_MOTION_DDOT":"0.0000000000000","CLASSIFICATION_TYPE":"U","OBJECT_NAME":"STARLINK-4116","NORAD_CAT_ID":"53164","MEAN_ELEMENT_THEORY":"SGP4","EPHEMERIS_TYPE":"0","RCS_SIZE":"LARGE","PERIAPSIS":"538.773","OBJECT_TYPE":"PAYLOAD","SEMIMAJOR_AXIS":"6917.966","EPOCH":"2022-11-02T18:00:02.000160","OBJECT_ID":"2022-083AJ","MEAN_ANOMALY":"159.7841","TIME_SYSTEM":"UTC","LAUNCH_DATE":"2022-07-17","TLE_LINE2":"2 53164  53.2168 254.0998 0001529  53.0004 159.7841 15.08812012  1309","ARG_OF_PERICENTER":"53.0004","COUNTRY_CODE":"US","APOAPSIS":"540.889","GP_ID":"216792514","TLE_LINE1":"1 53164U 22083AJ  22306.75002315  .00046298  00000-0  29103-2 0  9996","BSTAR":"0.00291030000000","ECCENTRICITY":"0.00015290","SITE":"AFETR","DECAY_DATE":null,"MEAN_MOTION":"15.08812012","PERIOD":"95.439","RA_OF_ASC_NODE":"254.0998","MEAN_MOTION_DOT":"0.00046298","ELEMENT_SET_NO":"999","REV_AT_EPOCH":"130","FILE":"3643025"},{"GP_ID":"216792766","SITE":"AFETR","ECCENTRICITY":"0.00017520","BSTAR":"0.00420690000000","TLE_LINE1":"1 53165U 22083AK  22306.75002315  .00067225  00000-0  42069-2 0  9996","DECAY_DATE":null,"PERIOD":"95.440","MEAN_MOTION":"15.08796904","MEAN_MOTION_DOT":"0.00067225","RA_OF_ASC_NODE":"254.1049","REV_AT_EPOCH":"130","ELEMENT_SET_NO":"999","FILE":"3643025","REF_FRAME":"TEME","CENTER_NAME":"EARTH","CLASSIFICATION_TYPE":"U","INCLINATION":"53.2191","MEAN_MOTION_DDOT":"0.0000000000000","NORAD_CAT_ID":"53165","OBJECT_NAME":"STARLINK-4090","PERIAPSIS":"538.665","RCS_SIZE":"LARGE","EPHEMERIS_TYPE":"0","MEAN_ELEMENT_THEORY":"SGP4","SEMIMAJOR_AXIS":"6918.012","OBJECT_TYPE":"PAYLOAD","MEAN_ANOMALY":"248.5207","OBJECT_ID":"2022-083AK","EPOCH":"2022-11-02T18:00:02.000160","TLE_LINE2":"2 53165  53.2191 254.1049 0001752  44.2727 248.5207 15.08796904  1300","ARG_OF_PERICENTER":"44.2727","LAUNCH_DATE":"2022-07-17","TIME_SYSTEM":"UTC","APOAPSIS":"541.089","COUNTRY_CODE":"US"},{"OBJECT_NAME":"STARLINK-4110","NORAD_CAT_ID":"53166","MEAN_ELEMENT_THEORY":"SGP4","EPHEMERIS_TYPE":"0","PERIAPSIS":"538.884","RCS_SIZE":"LARGE","CENTER_NAME":"EARTH","REF_FRAME":"TEME","INCLINATION":"53.2184","MEAN_MOTION_DDOT":"0.0000000000000","CLASSIFICATION_TYPE":"U","TIME_SYSTEM":"UTC","LAUNCH_DATE":"2022-07-17","TLE_LINE2":"2 53166  53.2184 254.1036 0001425  51.4573 201.3361 15.08799297  1301","ARG_OF_PERICENTER":"51.4573","COUNTRY_CODE":"US","APOAPSIS":"540.856","OBJECT_TYPE":"PAYLOAD","SEMIMAJOR_AXIS":"6918.005","EPOCH":"2022-11-02T18:00:02.000160","OBJECT_ID":"2022-083AL","MEAN_ANOMALY":"201.3361","DECAY_DATE":null,"MEAN_MOTION":"15.08799297","PERIOD":"95.440","GP_ID":"216793350","TLE_LINE1":"1 53166U 22083AL  22306.75002315  .00061640  00000-0  38617-2 0  9996","BSTAR":"0.00386170000000","ECCENTRICITY":"0.00014250","SITE":"AFETR","FILE":"3643025","RA_OF_ASC_NODE":"254.1036","MEAN_MOTION_DOT":"0.00061640","ELEMENT_SET_NO":"999","REV_AT_EPOCH":"130"},{"COUNTRY_CODE":"US","APOAPSIS":"539.795","TLE_LINE2":"2 53167  53.2189 238.6574 0001639  54.1528 305.9616 15.09194640 17592","ARG_OF_PERICENTER":"54.1528","TIME_SYSTEM":"UTC","LAUNCH_DATE":"2022-07-17","OBJECT_ID":"2022-083AM","MEAN_ANOMALY":"305.9616","EPOCH":"2022-11-02T20:20:27.823200","SEMIMAJOR_AXIS":"6916.797","OBJECT_TYPE":"PAYLOAD","PERIAPSIS":"537.528","RCS_SIZE":"LARGE","MEAN_ELEMENT_THEORY":"SGP4","EPHEMERIS_TYPE":"0","NORAD_CAT_ID":"53167","OBJECT_NAME":"STARLINK-3683","INCLINATION":"53.2189","MEAN_MOTION_DDOT":"0.0000000000000","CLASSIFICATION_TYPE":"U","CENTER_NAME":"EARTH","REF_FRAME":"TEME","FILE":"3642734","REV_AT_EPOCH":"1759","ELEMENT_SET_NO":"999","RA_OF_ASC_NODE":"238.6574","MEAN_MOTION_DOT":"-0.00080687","MEAN_MOTION":"15.09194640","PERIOD":"95.415","DECAY_DATE":null,"SITE":"AFETR","TLE_LINE1":"1 53167U 22083AM  22306.84754425 -.00080687  00000-0 -50594-2 0  9995","BSTAR":"-0.00505940000000","ECCENTRICITY":"0.00016390","GP_ID":"216761413"}];
